[{"OBJECT_NAME":"STARLINK-32273","OBJECT_ID":"2024-209T","EPOCH":"2026-03-09T12:35:16.446624","MEAN_MOTION":15.30196803,"ECCENTRICITY":0.00013005,"INCLINATION":53.1605,"RA_OF_ASC_NODE":143.0238,"ARG_OF_PERICENTER":64.5828,"MEAN_ANOMALY":295.5308,"EPHEMERIS_TYPE":0,"CLASSIFICATION_TYPE":"U","NORAD_CAT_ID":61956,"ELEMENT_SET_NO":999,"REV_AT_EPOCH":7487,"BSTAR":0.00068061256,"MEAN_MOTION_DOT":0.0001985,"MEAN_MOTION_DDOT":0},{"OBJECT_NAME":"CZ-4 DEB","OBJECT_ID":"2003-049H","EPOCH":"2026-03-08T08:27:28.944576","MEAN_MOTION":15.27137095,"ECCENTRICITY":0.00307627,"INCLINATION":98.6284,"RA_OF_ASC_NODE":272.5918,"ARG_OF_PERICENTER":169.0311,"MEAN_ANOMALY":191.1601,"EPHEMERIS_TYPE":0,"CLASSIFICATION_TYPE":"U","NORAD_CAT_ID":35381,"ELEMENT_SET_NO":999,"REV_AT_EPOCH":18390,"BSTAR":0.0032047887,"MEAN_MOTION_DOT":0.00087287,"MEAN_MOTION_DDOT":0}]
